OBJECT_NAME,OBJECT_ID,EPOCH,MEAN_MOTION,ECCENTRICITY,INCLINATION,RA_OF_ASC_NODE,ARG_OF_PERICENTER,MEAN_ANOMALY,EPHEMERIS_TYPE,CLASSIFICATION_TYPE,NORAD_CAT_ID,ELEMENT_SET_NO,REV_AT_EPOCH,BSTAR,MEAN_MOTION_DOT,MEAN_MOTION_DDOT
HULIANWANG DIGUI-59,2025-174B,2026-07-08T04:49:22.588032,13.24407111,.0001876,86.4912,244.7977,99.7741,260.3605,0,U,65165,999,4357,.22578E-4,.24E-6,0
HULIANWANG DIGUI-60,2025-174C,2026-07-08T03:11:26.129184,13.24406628,.0001777,86.4944,244.9283,101.7124,258.4210,0,U,65166,999,4356,-.1125E-4,.1E-6,0
HULIANWANG DIGUI-61,2025-174D,2026-07-08T03:22:20.777664,13.24407251,.0001638,86.4952,244.9586,97.8247,262.3073,0,U,65167,999,4356,-.19592E-4,.6E-7,0
HULIANWANG DIGUI-62,2025-174E,2026-07-08T03:33:04.110336,13.24408803,.0001663,86.4894,244.7751,103.0825,257.0495,0,U,65168,999,4356,-.89599E-5,.11E-6,0
HULIANWANG DIGUI-63,2025-174F,2026-07-08T03:43:47.761824,13.24403090,.0001571,86.4946,244.9452,101.2789,258.8521,0,U,65169,999,4356,.12797E-4,.2E-6,0
HULIANWANG DIGUI-64,2025-174G,2026-07-08T03:54:56.321568,13.24407048,.000173,86.4905,244.8186,103.1809,256.9518,0,U,65170,999,4356,.36654E-4,.3E-6,0
HULIANWANG DIGUI-65,2025-174H,2026-07-08T04:16:37.426080,13.24407073,.0001699,86.4868,244.7090,97.2143,262.9185,0,U,65171,999,4356,.79657E-4,.49E-6,0
HULIANWANG DIGUI-66,2025-174J,2026-07-08T04:05:48.170688,13.24406728,.000178,86.4903,244.8200,101.5316,258.6018,0,U,65172,999,4356,.68513E-4,.44E-6,0
HULIANWANG DIGUI-67,2025-174K,2026-07-08T04:27:31.500864,13.24408265,.000178,86.4916,244.8625,99.7114,260.4221,0,U,65173,999,4353,.7551E-4,.47E-6,0
STARLINK-34956,2025-175A,2026-07-08T02:23:34.650240,15.05651768,.0002626,97.2858,59.4760,88.1915,271.9614,0,U,65174,999,5072,.22016E-3,.3122E-4,0
STARLINK-34949,2025-175B,2026-07-08T02:19:35.222880,15.05656949,.0002304,97.2853,59.4794,85.2857,274.8633,0,U,65175,999,5076,.21349E-3,.3026E-4,0
STARLINK-34707,2025-175C,2026-07-08T02:15:35.051616,15.05670000,.0003001,97.2848,59.4832,82.6470,277.5098,0,U,65176,999,5075,.46635E-3,.6683E-4,0
STARLINK-34967,2025-175D,2026-07-08T02:11:36.603168,15.05658181,.0002801,97.2854,59.4868,87.8425,272.3123,0,U,65177,999,5075,.20889E-3,.296E-4,0
STARLINK-34929,2025-175E,2026-07-08T02:07:37.408224,15.05657665,.0002705,97.2852,59.4910,88.3114,271.8424,0,U,65178,999,5075,.19413E-3,.2746E-4,0
STARLINK-34932,2025-175F,2026-07-08T01:59:40.180416,15.05661672,.0002057,97.2844,59.4991,91.0223,269.1241,0,U,65179,999,5075,.19022E-3,.269E-4,0
STARLINK-34862,2025-175G,2026-07-08T01:55:37.080192,15.05687962,.0002181,97.2831,59.5016,39.4307,320.7079,0,U,65180,999,5075,.9245E-4,.1279E-4,0
STARLINK-34942,2025-175H,2026-07-08T03:38:40.066368,15.06723793,.0002542,97.2844,59.5588,80.8101,279.3415,0,U,65181,999,5073,.22817E-1,.356267E-2,0
STARLINK-34944,2025-175J,2026-07-07T08:18:58.226400,15.05657265,.00021822,97.2853,58.8165,86.8485,273.2992,0,U,65182,999,5064,.17566604E-3,.248E-4,0
STARLINK-34939,2025-175K,2026-07-06T14:42:17.120160,15.05653911,.00022829,97.2851,58.1293,87.4981,272.6508,0,U,65183,999,5050,.11790045E-3,.1645E-4,0
STARLINK-34947,2025-175L,2026-07-07T01:48:12.686976,15.05644561,.00019831,97.2847,58.5724,93.1191,267.0264,0,U,65184,999,5060,.25173458E-3,.3577E-4,0
STARLINK-34945,2025-175M,2026-07-08T01:39:41.441760,15.05686558,.0002613,97.2848,59.5170,87.8238,272.3289,0,U,65185,999,5075,.61264E-3,.8803E-4,0
STARLINK-34965,2025-175N,2026-07-08T01:31:44.600160,15.05659671,.0002171,97.2864,59.5262,74.8953,285.2514,0,U,65186,999,5075,.27888E-3,.3971E-4,0
STARLINK-34915,2025-175P,2026-07-08T01:35:44.079360,15.05655607,.0002255,97.2851,59.5217,86.0447,274.1039,0,U,65187,999,5075,.25952E-3,.3691E-4,0
STARLINK-34972,2025-175Q,2026-07-07T01:32:14.740800,15.05659923,.00019357,97.2863,58.5889,87.9702,272.1748,0,U,65188,999,5057,.71337788E-4,.973E-5,0
STARLINK-34866,2025-175R,2026-07-08T01:23:44.113344,15.05709486,.0002036,97.2854,59.5336,79.0843,281.0614,0,U,65189,999,5075,.50547E-3,.7256E-4,0
STARLINK-34917,2025-175S,2026-07-08T04:00:01.998720,15.05676801,.0001812,97.2860,59.6427,93.9012,149.0768,0,U,65190,999,587,-.48552E-3,-.706E-4,0
STARLINK-34948,2025-175T,2026-07-06T15:46:05.271744,15.05650383,.00025982,97.2860,58.2191,78.1733,281.9786,0,U,65191,999,5054,.22851008E-3,.3242E-4,0
STARLINK-34955,2025-175U,2026-07-08T02:47:29.691168,15.05668301,.0002249,97.2860,59.6083,66.7012,293.4452,0,U,65192,999,5073,.37368E-3,.5342E-4,0
STARLINK-34950,2025-175V,2026-07-08T02:43:30.733824,15.05661309,.0002524,97.2855,59.6112,88.4323,271.7193,0,U,65193,999,5073,.21936E-3,.3111E-4,0
STARLINK-34926,2025-175W,2026-07-08T02:27:32.862816,15.05685049,.0002571,97.2857,59.6281,88.6223,271.5299,0,U,65194,999,5073,.66331E-3,.9536E-4,0
