HULIANWANG DIGUI-59     
1 65165U 25174B   26189.20095588  .00000024  00000+0  22578-4 0  9998
2 65165  86.4912 244.7977 0001876  99.7741 260.3605 13.24407111 43579
HULIANWANG DIGUI-60     
1 65166U 25174C   26189.13294131  .00000010  00000+0 -11250-4 0  9997
2 65166  86.4944 244.9283 0001777 101.7124 258.4210 13.24406628 43567
HULIANWANG DIGUI-61     
1 65167U 25174D   26189.14051826  .00000006  00000+0 -19592-4 0  9993
2 65167  86.4952 244.9586 0001638  97.8247 262.3073 13.24407251 43564
HULIANWANG DIGUI-62     
1 65168U 25174E   26189.14796424  .00000011  00000+0 -89599-5 0  9995
2 65168  86.4894 244.7751 0001663 103.0825 257.0495 13.24408803 43565
HULIANWANG DIGUI-63     
1 65169U 25174F   26189.15541391  .00000020  00000+0  12797-4 0  9992
2 65169  86.4946 244.9452 0001571 101.2789 258.8521 13.24403090 43563
HULIANWANG DIGUI-64     
1 65170U 25174G   26189.16315187  .00000030  00000+0  36654-4 0  9996
2 65170  86.4905 244.8186 0001730 103.1809 256.9518 13.24407048 43566
HULIANWANG DIGUI-65     
1 65171U 25174H   26189.17821095  .00000049  00000+0  79657-4 0  9998
2 65171  86.4868 244.7090 0001699  97.2143 262.9185 13.24407073 43561
HULIANWANG DIGUI-66     
1 65172U 25174J   26189.17069642  .00000044  00000+0  68513-4 0  9995
2 65172  86.4903 244.8200 0001780 101.5316 258.6018 13.24406728 43561
HULIANWANG DIGUI-67     
1 65173U 25174K   26189.18578126  .00000047  00000+0  75510-4 0  9997
2 65173  86.4916 244.8625 0001780  99.7114 260.4221 13.24408265 43533
STARLINK-34956          
1 65174U 25175A   26189.09970660  .00003122  00000+0  22016-3 0  9997
2 65174  97.2858  59.4760 0002626  88.1915 271.9614 15.05651768 50721
STARLINK-34949          
1 65175U 25175B   26189.09693545  .00003026  00000+0  21349-3 0  9993
2 65175  97.2853  59.4794 0002304  85.2857 274.8633 15.05656949 50763
STARLINK-34707          
1 65176U 25175C   26189.09415569  .00006683  00000+0  46635-3 0  9999
2 65176  97.2848  59.4832 0003001  82.6470 277.5098 15.05670000 50756
STARLINK-34967          
1 65177U 25175D   26189.09139587  .00002960  00000+0  20889-3 0  9990
2 65177  97.2854  59.4868 0002801  87.8425 272.3123 15.05658181 50755
STARLINK-34929          
1 65178U 25175E   26189.08862741  .00002746  00000+0  19413-3 0  9998
2 65178  97.2852  59.4910 0002705  88.3114 271.8424 15.05657665 50750
STARLINK-34932          
1 65179U 25175F   26189.08310394  .00002690  00000+0  19022-3 0  9995
2 65179  97.2844  59.4991 0002057  91.0223 269.1241 15.05661672 50753
STARLINK-34862          
1 65180U 25175G   26189.08029028  .00001279  00000+0  92450-4 0  9997
2 65180  97.2831  59.5016 0002181  39.4307 320.7079 15.05687962 50750
STARLINK-34942          
1 65181U 25175H   26189.15185262  .00356267  00000+0  22817-1 0  9996
2 65181  97.2844  59.5588 0002542  80.8101 279.3415 15.06723793 50737
STARLINK-34944          
1 65182U 25175J   26188.34650725  .00002480  00000+0  17567-3 0  9991
2 65182  97.2853  58.8165 0002182  86.8485 273.2992 15.05657265 50644
STARLINK-34939          
1 65183U 25175K   26187.61269815  .00001645  00000+0  11790-3 0  9991
2 65183  97.2851  58.1293 0002282  87.4981 272.6508 15.05653911 50502
STARLINK-34947          
1 65184U 25175L   26188.07514684  .00003577  00000+0  25173-3 0  9996
2 65184  97.2847  58.5724 0001983  93.1191 267.0264 15.05644561 50604
STARLINK-34945          
1 65185U 25175M   26189.06922965  .00008803  00000+0  61264-3 0  9990
2 65185  97.2848  59.5170 0002613  87.8238 272.3289 15.05686558 50759
STARLINK-34965          
1 65186U 25175N   26189.06371065  .00003971  00000+0  27888-3 0  9995
2 65186  97.2864  59.5262 0002171  74.8953 285.2514 15.05659671 50759
STARLINK-34915          
1 65187U 25175P   26189.06648240  .00003691  00000+0  25952-3 0  9997
2 65187  97.2851  59.5217 0002255  86.0447 274.1039 15.05655607 50756
STARLINK-34972          
1 65188U 25175Q   26188.06405950  .00000973  00000+0  71338-4 0  9996
2 65188  97.2863  58.5889 0001935  87.9702 272.1748 15.05659923 50572
STARLINK-34866          
1 65189U 25175R   26189.05814946  .00007256  00000+0  50547-3 0  9995
2 65189  97.2854  59.5336 0002036  79.0843 281.0614 15.05709486 50753
STARLINK-34917          
1 65190U 25175S   26189.16668980 -.00007060  00000+0 -48552-3 0  9992
2 65190  97.2860  59.6427 0001812  93.9012 149.0768 15.05676801  5878
STARLINK-34948          
1 65191U 25175T   26187.65700546  .00003242  00000+0  22851-3 0  9990
2 65191  97.2860  58.2191 0002598  78.1733 281.9786 15.05650383 50546
STARLINK-34955          
1 65192U 25175U   26189.11631587  .00005342  00000+0  37368-3 0  9994
2 65192  97.2860  59.6083 0002249  66.7012 293.4452 15.05668301 50736
STARLINK-34950          
1 65193U 25175V   26189.11355016  .00003111  00000+0  21936-3 0  9991
2 65193  97.2855  59.6112 0002524  88.4323 271.7193 15.05661309 50738
STARLINK-34926          
1 65194U 25175W   26189.10246369  .00009536  00000+0  66331-3 0  9996
2 65194  97.2857  59.6281 0002571  88.6223 271.5299 15.05685049 50733
